OBJECT_NAME,OBJECT_ID,EPOCH,MEAN_MOTION,ECCENTRICITY,INCLINATION,RA_OF_ASC_NODE,ARG_OF_PERICENTER,MEAN_ANOMALY,EPHEMERIS_TYPE,CLASSIFICATION_TYPE,NORAD_CAT_ID,ELEMENT_SET_NO,REV_AT_EPOCH,BSTAR,MEAN_MOTION_DOT,MEAN_MOTION_DDOT
JACK K,2025-274K,2026-06-03T13:07:11.590752,14.93777533,.0014957,97.7486,84.1349,66.8785,293.4009,0,U,66659,999,2819,.28349E-3,.2954E-4,0
K-HERO,2025-274L,2026-06-03T07:52:17.150592,14.93903672,.00153906,97.7488,83.9690,67.4158,292.8689,0,U,66660,999,2816,.21467478E-3,.223E-4,0
SNUGLITE-III,2025-274M,2026-06-03T17:13:56.172000,14.93953415,.00160451,97.7486,84.3740,66.8521,293.4387,0,U,66661,999,2822,.15699833E-3,.1618E-4,0
E3T-1 (E3TESTER-1),2025-274N,2026-06-03T07:14:58.059168,14.94132259,.00166305,97.7494,83.9997,67.6815,292.6166,0,U,66662,999,2816,.22959531E-3,.2405E-4,0
SOYUZ-MS 28,2025-275A,2026-06-03T23:13:08.053248,15.49590346,.00070816,51.6330,5.5404,130.0270,230.1341,0,U,66664,999,56918,.15806838E-3,.8451E-4,0
FORMOSAT-8A,2025-276A,2026-06-04T03:19:33.362112,15.00813308,.00044174,97.6541,229.5792,322.7750,37.3167,0,U,66666,999,2810,.16245331E-3,.2004E-4,0
PELICAN-5,2025-276B,2026-06-03T04:59:04.219872,15.29184776,.0003055,97.4113,229.2185,77.2486,282.9096,0,U,66667,999,2838,.80636E-3,.22809E-3,0
SARI-1,2025-276C,2026-06-03T23:38:17.658240,15.27061817,.00072643,97.4051,229.2761,65.3685,294.8310,0,U,66668,999,2847,.12124323E-2,.32245E-3,0
SARI-2,2025-276D,2026-06-04T06:06:30.985056,15.26682852,.00073499,97.4068,229.5671,68.6626,291.5396,0,U,66669,999,2851,.1222724E-2,.32149E-3,0
HUNITY,2025-276E,2026-06-04T00:25:11.402112,15.26314917,.0007149,97.4074,229.2946,68.6785,291.5216,0,U,66670,999,2847,.11525495E-2,.29955E-3,0
ANISCSAT-1,2025-276F,2026-06-03T04:13:51.495744,15.21288302,.00067952,97.4210,228.1413,60.0128,300.1781,0,U,66671,999,2830,.52460084E-3,.11678E-3,0
BRO-17,2025-276G,2026-06-04T03:07:32.131200,15.17908051,.00079409,97.4189,228.4979,56.4351,303.7640,0,U,66672,999,2841,.23806946E-3,.4764E-4,0
TRANSPORTER-15 OBJECT H,2025-276H,2026-06-04T02:11:12.572736,15.22536206,.00072293,97.4162,229.0740,69.7417,290.4596,0,U,66673,999,2845,.50277756E-3,.11608E-3,0
BRO-20,2025-276J,2026-06-04T05:49:20.736768,15.18079349,.00076783,97.4169,228.5982,58.8746,301.3240,0,U,66674,999,2843,.21293962E-3,.4275E-4,0
VEERY-0G,2025-276K,2026-06-03T03:43:56.286912,15.20586156,.00069554,97.4172,227.9327,64.4262,295.7692,0,U,66675,999,2829,.50829543E-3,.11082E-3,0
TRANSPORTER-15 OBJECT L,2025-276L,2026-06-04T02:56:37.209696,15.18888107,.00072204,97.4177,228.6329,59.8977,300.2973,0,U,66676,999,2842,.2789078E-3,.5754E-4,0
AE5RC,2025-276M,2026-06-04T03:16:03.546624,15.22540953,.0006296,97.4181,229.2180,69.8601,290.3312,0,U,66677,999,2846,.67062593E-3,.15515E-3,0
LEMUR-2-DEANANDMAEVE,2025-276N,2026-06-03T03:46:58.408608,15.19547134,.00069082,97.4215,227.8684,57.9653,302.2252,0,U,66678,999,2828,.38644322E-3,.8155E-4,0
LILIUM-2,2025-276P,2026-06-04T02:54:37.079136,15.17879700,.00073383,97.4155,228.4274,60.8286,299.3681,0,U,66679,999,2841,.19689011E-3,.3925E-4,0
OTTER,2025-276Q,2026-06-03T14:03:51.346080,15.19048810,.0007109,97.4204,228.1915,56.8054,303.3862,0,U,66680,999,2834,.29942E-3,.6211E-4,0
TRANSPORTER-15 OBJECT R,2025-276R,2026-06-04T00:22:07.904928,15.23584185,.0006023,97.4117,229.0913,74.7698,285.4204,0,U,66681,999,2845,.83561505E-3,.19966E-3,0
ION SCV-022,2025-276S,2026-06-03T03:30:02.966688,14.97512299,.00037923,97.5301,225.3280,195.0544,165.0567,0,U,66682,999,2797,.15789197E-3,.1785E-4,0
6GSTARLAB,2025-276T,2026-06-04T03:22:24.828960,15.18321385,.00069582,97.4244,228.7679,52.1052,308.0811,0,U,66683,999,2842,.18534286E-3,.3738E-4,0
MICE-1,2025-276U,2026-06-04T03:17:41.697888,15.19091443,.00065651,97.4269,228.9833,51.5932,308.5891,0,U,66684,999,2843,.24309795E-3,.5035E-4,0
AE5RA,2025-276V,2026-06-04T03:15:29.419488,15.22534037,.00058751,97.4217,229.3067,68.6589,291.5274,0,U,66685,999,2846,.68817951E-3,.15919E-3,0
LEMUR-2-STAS-GORBUK,2025-276W,2026-06-04T02:11:10.944960,15.19233666,.00063119,97.4246,228.8413,55.1396,305.0431,0,U,66686,999,2842,.34599838E-3,.7227E-4,0
LEO EXPRESS 3,2025-276X,2026-06-03T03:58:24.708000,15.20714025,.00063831,97.4260,228.0336,185.4829,174.6338,0,U,66687,999,2829,.62042123E-3,.13596E-3,0
WISDOM A,2025-276Y,2026-06-03T03:56:54.719808,15.19194858,.00061198,97.4221,227.8815,58.9047,301.2787,0,U,66688,999,2828,.30095367E-3,.6269E-4,0
AC1-003,2025-276Z,2026-06-04T03:18:19.274976,15.18167828,.00042859,97.4205,228.6815,71.8977,288.2723,0,U,66689,999,2842,.14623337E-3,.2921E-4,0
TRANSPORTER-15 OBJECT AA,2025-276AA,2026-06-03T15:24:28.110528,15.18924191,.00060248,97.4183,228.2214,59.1751,301.0076,0,U,66690,999,2835,.24418143E-3,.5033E-4,0
TRANSPORTER-15 OBJECT AB,2025-276AB,2026-06-04T04:24:34.967520,15.20710796,.00056905,97.4202,229.0751,58.1111,302.0677,0,U,66691,999,2845,.42786769E-3,.9348E-4,0
NUSAT-52,2025-276AC,2026-06-03T10:49:40.674144,15.19559958,.0004454,97.4208,228.2315,75.1062,285.0666,0,U,66692,999,2833,.27010621E-3,.5678E-4,0
AE5RB,2025-276AD,2026-06-04T03:14:23.884224,15.22378380,.0005118,97.4170,229.1969,73.4173,286.7625,0,U,66693,999,2846,.74038629E-3,.17055E-3,0
YAM-9,2025-276AE,2026-06-04T05:56:58.323264,15.14785593,.00086417,97.4211,228.1024,8.3368,351.8007,0,U,66694,999,2839,.32484454E-3,.597E-4,0
IRIDE FM1,2025-276AF,2026-06-04T05:57:34.587072,15.20716034,.00018267,97.4195,229.2637,66.1430,293.9997,0,U,66695,999,2847,.29190514E-3,.6352E-4,0
IRIDE FM2,2025-276AG,2026-06-04T03:19:28.425216,15.20255882,.00048996,97.4184,228.9236,69.0512,291.1247,0,U,66696,999,2844,.42903859E-3,.9249E-4,0
IRIDE FM3,2025-276AH,2026-06-04T03:00:10.206432,15.20645875,.00022455,97.4182,229.0907,51.6940,308.4497,0,U,66697,999,2845,.38792464E-3,.8449E-4,0
IRIDE FM4,2025-276AJ,2026-06-04T05:57:11.659968,15.19599994,.0005293,97.4183,228.9338,65.6056,294.5731,0,U,66698,999,2845,.31907511E-3,.6729E-4,0
IRIDE FM5,2025-276AK,2026-06-04T00:37:08.578272,15.19975932,.00050007,97.4198,228.8056,70.2074,289.9700,0,U,66699,999,2842,.4190732E-3,.8959E-4,0
IRIDE FM6,2025-276AL,2026-06-04T02:31:09.692256,15.21020860,.00021542,97.4217,229.2013,54.4172,305.7264,0,U,66700,999,2845,.30003578E-3,.659E-4,0
IRIDE FM7,2025-276AM,2026-06-04T00:26:32.349408,15.20047940,.0005568,97.4217,228.8593,59.7604,300.4182,0,U,66701,999,2842,.30594135E-3,.6534E-4,0
IRIDE FM8,2025-276AN,2026-06-04T02:07:14.602944,15.19979140,.00051872,97.4190,228.8610,77.2417,282.9398,0,U,66702,999,2843,.31629677E-3,.6744E-4,0
PELICAN-6,2025-276AP,2026-06-03T20:31:00.866496,15.29681030,.00012623,97.4075,230.0424,128.0149,232.1205,0,U,66703,999,2849,.71796005E-3,.20605E-3,0
FLOCK 4H-1,2025-276AQ,2026-06-03T22:51:41.292000,15.20404474,.00024791,97.4179,228.8488,44.4984,315.6450,0,U,66704,999,2842,.34163509E-3,.7379E-4,0
FLOCK 4H-2,2025-276AR,2026-06-03T05:01:53.906880,15.20648593,.0002054,97.4175,228.1516,60.7693,299.3747,0,U,66705,999,2831,.35238E-3,.7668E-4,0
FLOCK 4H-3,2025-276AS,2026-06-03T10:31:55.075296,15.19777407,.00052249,97.4244,228.3193,62.8474,297.3293,0,U,66706,999,2833,.31738739E-3,.6728E-4,0
FLOCK 4H-4,2025-276AT,2026-06-04T03:03:21.756096,15.19557638,.00058247,97.4226,228.8867,60.8577,299.3240,0,U,66707,999,2843,.32976837E-3,.6949E-4,0
FLOCK 4H-5,2025-276AU,2026-06-03T03:45:20.942496,15.20441865,.00018602,97.4176,228.0841,71.4440,288.6997,0,U,66708,999,2830,.3329408E-3,.7197E-4,0
FLOCK 4H-6,2025-276AV,2026-06-04T02:46:26.383296,15.20138352,.00037899,97.4225,229.0626,44.0418,316.1118,0,U,66709,999,2844,.31902328E-3,.6833E-4,0
FLOCK 4H-7,2025-276AW,2026-06-03T04:03:49.083840,15.19880109,.00038011,97.4186,227.9268,86.4399,273.7270,0,U,66710,999,2829,.33987782E-3,.723E-4,0
FLOCK 4H-8,2025-276AX,2026-06-04T00:27:07.503840,15.19987235,.00047722,97.4224,228.8839,72.9081,287.2677,0,U,66711,999,2842,.3833247E-3,.819E-4,0
FLOCK 4H-9,2025-276AY,2026-06-03T15:29:58.924032,15.20278880,.00041145,97.4216,228.5980,48.0458,312.1128,0,U,66712,999,2837,.34061316E-3,.7331E-4,0
FLOCK 4H-10,2025-276AZ,2026-06-04T02:45:16.393248,15.19678932,.00057496,97.4190,228.8206,61.6261,298.5553,0,U,66713,999,2843,.31626084E-3,.6685E-4,0
FLOCK 4H-11,2025-276BA,2026-06-03T10:17:45.759840,15.22228894,.0003971,97.4200,228.5535,78.8464,281.3218,0,U,66714,999,2835,.73788287E-3,.16919E-3,0
FLOCK 4H-12,2025-276BB,2026-06-03T23:06:25.850880,15.20327445,.00027547,97.4188,228.8585,47.9180,312.2289,0,U,66715,999,2873,.3419126E-3,.7369E-4,0
FLOCK 4H-13,2025-276BC,2026-06-04T03:13:57.447552,15.20530924,.0001643,97.4225,229.1753,54.5863,305.5526,0,U,66716,999,2845,.287291E-3,.6216E-4,0
FLOCK 4H-14,2025-276BD,2026-06-04T02:32:48.557184,15.20869446,.00014676,97.4207,229.1765,59.2950,300.8430,0,U,66717,999,2770,.33031656E-3,.723E-4,0
FLOCK 4H-15,2025-276BE,2026-06-03T03:41:10.847328,15.19402908,.00057118,97.4220,227.8823,74.5375,285.6491,0,U,66718,999,2828,.32601619E-3,.6838E-4,0
FLOCK 4H-16,2025-276BF,2026-06-03T12:41:00.730752,15.19651416,.00056724,97.4238,228.3366,63.8051,296.3767,0,U,66719,999,2834,.35824918E-3,.7576E-4,0
FLOCK 4H-18,2025-276BH,2026-06-04T03:01:10.291584,15.19615174,.00054261,97.4179,228.7717,80.5812,279.6036,0,U,66721,999,2843,.33528153E-3,.7078E-4,0
FLOCK 4H-19,2025-276BJ,2026-06-04T02:12:58.716864,15.20872697,.00015143,97.4180,229.1257,35.3539,324.7797,0,U,66722,999,2774,.30773148E-3,.6731E-4,0
FLOCK 4H-20,2025-276BK,2026-06-04T02:21:33.739488,15.21006408,.00024639,97.4216,229.2086,22.3690,337.7652,0,U,66723,999,2770,.27302432E-3,.5987E-4,0
FLOCK 4H-21,2025-276BL,2026-06-04T06:00:24.838272,15.20600646,.00025274,97.4182,229.2259,26.3608,333.7755,0,U,66724,999,2772,.27906403E-3,.6049E-4,0
FLOCK 4H-22,2025-276BM,2026-06-03T22:49:31.221120,15.20006598,.00041541,97.4171,228.6815,83.9889,276.1820,0,U,66725,999,2841,.36484477E-3,.7796E-4,0
FLOCK 4H-23,2025-276BN,2026-06-02T17:48:12.450528,15.19575673,.00056242,97.4245,227.5652,60.1177,300.0616,0,U,66726,999,2822,.33898535E-3,.7149E-4,0
